{
  "norad_id": 60270,
  "name": "STARLINK-32211",
  "history": [
    {
      "epoch": "2026-03-28T22:52:03.606528Z",
      "apogee_km": 476.04778591754257,
      "perigee_km": 474.4497134284338,
      "latitude_deg": -2.467922328005963e-05,
      "longitude_deg": 153.88717669287394,
      "height_km": 476.1607950181004,
      "semi_major_axis_km": 6853.385749672988,
      "eccentricity": 0.00011659,
      "inclination_deg": 53.1604,
      "raan_deg": 323.2681,
      "arg_perigee_deg": 90.9886,
      "mean_anomaly_deg": 269.1248,
      "mean_motion_rev_day": 15.3018872
    },
    {
      "epoch": "2026-03-29T00:26:07.180224Z",
      "apogee_km": 476.0055127868254,
      "perigee_km": 474.4895441291319,
      "latitude_deg": -2.3928986139597178e-05,
      "longitude_deg": 130.00430536103158,
      "height_km": 476.1868388576495,
      "semi_major_axis_km": 6853.384528457978,
      "eccentricity": 0.0001106,
      "inclination_deg": 53.1613,
      "raan_deg": 322.9645,
      "arg_perigee_deg": 93.091,
      "mean_anomaly_deg": 267.0217,
      "mean_motion_rev_day": 15.30189129
    },
    {
      "epoch": "2026-03-30T01:30:57.751488Z",
      "apogee_km": 475.954862927847,
      "perigee_km": 474.49002588020085,
      "latitude_deg": 3.903794754690163e-05,
      "longitude_deg": 107.90941091065969,
      "height_km": 476.0448844147075,
      "semi_major_axis_km": 6853.359444404024,
      "eccentricity": 0.00010687,
      "inclination_deg": 53.161,
      "raan_deg": 318.1103,
      "arg_perigee_deg": 84.0425,
      "mean_anomaly_deg": 276.0698,
      "mean_motion_rev_day": 15.3019753
    },
    {
      "epoch": "2026-03-30T14:03:23.607360Z",
      "apogee_km": 475.9625028974833,
      "perigee_km": 474.507257912398,
      "latitude_deg": 4.957930943920597e-05,
      "longitude_deg": -83.14063410352743,
      "height_km": 476.04113751171155,
      "semi_major_axis_km": 6853.37188040494,
      "eccentricity": 0.00010617,
      "inclination_deg": 53.1607,
      "raan_deg": 315.683,
      "arg_perigee_deg": 82.7219,
      "mean_anomaly_deg": 277.3903,
      "mean_motion_rev_day": 15.30193365
    },
    {
      "epoch": "2026-03-30T21:53:39.119712Z",
      "apogee_km": 475.93614151877864,
      "perigee_km": 474.528322411149,
      "latitude_deg": 5.6865838190206496e-06,
      "longitude_deg": 157.45601824032045,
      "height_km": 476.0201281162846,
      "semi_major_axis_km": 6853.369231964964,
      "eccentricity": 0.00010271,
      "inclination_deg": 53.1603,
      "raan_deg": 314.1662,
      "arg_perigee_deg": 80.9637,
      "mean_anomaly_deg": 279.148,
      "mean_motion_rev_day": 15.30194252
    },
    {
      "epoch": "2026-03-31T21:24:27.605952Z",
      "apogee_km": 475.96256798545164,
      "perigee_km": 474.5233581932034,
      "latitude_deg": -2.3541981102892362e-05,
      "longitude_deg": 159.23770798370504,
      "height_km": 476.062490675042,
      "semi_major_axis_km": 6853.379963089327,
      "eccentricity": 0.000105,
      "inclination_deg": 53.16,
      "raan_deg": 309.6156,
      "arg_perigee_deg": 83.7088,
      "mean_anomaly_deg": 276.4032,
      "mean_motion_rev_day": 15.30190658
    },
    {
      "epoch": "2026-04-01T20:55:14.174976Z",
      "apogee_km": 475.9344046171127,
      "perigee_km": 474.4581966241576,
      "latitude_deg": -4.245508021594127e-06,
      "longitude_deg": 161.028044024526,
      "height_km": 476.06732088063853,
      "semi_major_axis_km": 6853.333300620635,
      "eccentricity": 0.0001077,
      "inclination_deg": 53.1605,
      "raan_deg": 305.0656,
      "arg_perigee_deg": 87.8745,
      "mean_anomaly_deg": 272.2379,
      "mean_motion_rev_day": 15.30206286
    }
  ]
}